NORAD_CAT_ID,OBJECT_NAME,OBJECT_TYPE,EPOCH,MEAN_MOTION,ECCENTRICITY,INCLINATION,RA_OF_ASC_NODE,ARG_OF_PERICENTER,MEAN_ANOMALY,BSTAR,MEAN_MOTION_DOT,MEAN_MOTION_DDOT,TLE_LINE0,TLE_LINE1,TLE_LINE2,SEMIMAJOR_AXIS,PERIOD,APOGEE,PERIGEE,DECAYED
53576.0,STARLINK-4581,PAYLOAD,2024-06-09 21:38:07,15.0883666,0.0001744,53.2204,37.0641,92.8294,267.2898,6.4422e-05,7.37e-06,0.0,0 STARLINK-4581,1 53576U 22101BB  24161.90147803  .00000737  00000-0  64422-4 0  9997,2 53576  53.2204  37.0641 0001744  92.8294 267.2898 15.08836660100988,6917.891,95.438,540.962,538.549,0.0
53576.0,STARLINK-4581,PAYLOAD,2024-06-09 23:13:30,15.08838912,0.0001388,53.2185,36.7658,81.6602,278.4547,5.3626e-05,5.66e-06,0.0,0 STARLINK-4581,1 53576U 22101BB  24161.96771681  .00000566  00000-0  53626-4 0  9994,2 53576  53.2185  36.7658 0001388  81.6602 278.4547 15.08838912100171,6917.884,95.438,540.709,538.789,0.0
53576.0,STARLINK-4581,PAYLOAD,2024-06-10 08:45:48,15.0885067,0.0001523,53.2188,34.9814,73.2154,286.9005,9.9409e-05,1.295e-05,0.0,0 STARLINK-4581,1 53576U 22101BB  24162.36514809  .00001295  00000-0  99409-4 0  9995,2 53576  53.2188  34.9814 0001523  73.2154 286.9005 15.08850670100233,6917.848,95.437,540.766,538.659,0.0
53576.0,STARLINK-4581,PAYLOAD,2024-06-10 21:28:55,15.08826424,0.0001131,53.2178,32.6059,89.0218,271.0904,0.00013658,1.886e-05,0.0,0 STARLINK-4581,1 53576U 22101BB  24162.89508262  .00001886  00000-0  13658-3 0  9996,2 53576  53.2178  32.6059 0001131  89.0218 271.0904 15.08826424100311,6917.922,95.438,540.569,539.004,0.0
53576.0,STARLINK-4581,PAYLOAD,2024-06-10 23:04:17,15.08838568,0.0001256,53.2176,32.3083,84.409,275.7046,8.4257e-05,1.053e-05,0.0,0 STARLINK-4581,1 53576U 22101BB  24162.96131757  .00001053  00000-0  84257-4 0  9995,2 53576  53.2176  32.3083 0001256  84.4090 275.7046 15.08838568101140,6917.885,95.438,540.619,538.881,0.0
53576.0,STARLINK-4581,PAYLOAD,2024-06-11 00:39:40,15.08844026,0.0001311,53.2185,32.0086,81.49,278.6241,0.00016314,2.31e-05,0.0,0 STARLINK-4581,1 53576U 22101BB  24163.02755272  .00002310  00000-0  16314-3 0  9992,2 53576  53.2185  32.0086 0001311  81.4900 278.6241 15.08844026100334,6917.868,95.437,540.64,538.826,0.0
53576.0,STARLINK-4581,PAYLOAD,2024-06-11 08:36:35,15.08850036,0.0001292,53.2182,30.5239,100.7421,259.3717,0.00017534,2.504e-05,0.0,0 STARLINK-4581,1 53576U 22101BB  24163.35874647  .00002504  00000-0  17534-3 0  9996,2 53576  53.2182  30.5239 0001292 100.7421 259.3717 15.08850036101204,6917.85,95.437,540.608,538.821,0.0
53576.0,STARLINK-4581,PAYLOAD,2024-06-12 00:30:27,15.08850792,0.0001446,53.2187,27.5439,98.1749,261.9407,3.3304e-05,2.42e-06,0.0,0 STARLINK-4581,1 53576U 22101BB  24164.02114883  .00000242  00000-0  33304-4 0  9991,2 53576  53.2187  27.5439 0001446  98.1749 261.9407 15.08850792101306,6917.847,95.437,540.713,538.712,0.0
53576.0,STARLINK-4581,PAYLOAD,2024-06-12 08:27:22,15.08847888,0.0001555,53.2196,26.0565,96.4374,263.6796,9.018e-05,1.148e-05,0.0,0 STARLINK-4581,1 53576U 22101BB  24164.35234770  .00001148  00000-0  90180-4 0  9996,2 53576  53.2196  26.0565 0001555  96.4374 263.6796 15.08847888100532,6917.856,95.437,540.797,538.646,0.0
53576.0,STARLINK-4581,PAYLOAD,2024-06-12 21:10:29,15.08835008,0.0001451,53.2186,23.6845,79.8583,280.2572,-8.4669e-05,-1.635e-05,0.0,0 STARLINK-4581,1 53576U 22101BB  24164.88228235 -.00001635  00000-0 -84669-4 0  9991,2 53576  53.2186  23.6845 0001451  79.8583 280.2572 15.08835008100614,6917.896,95.438,540.764,538.757,0.0
53576.0,STARLINK-4581,PAYLOAD,2024-06-13 00:21:15,15.08837981,0.0001428,53.2189,23.0873,93.8943,266.2213,-4.6762e-05,-1.032e-05,0.0,0 STARLINK-4581,1 53576U 22101BB  24165.01475875 -.00001032  00000-0 -46762-4 0  9994,2 53576  53.2189  23.0873 0001428  93.8943 266.2213 15.08837981101453,6917.887,95.438,540.739,538.764,0.0
53576.0,STARLINK-4581,PAYLOAD,2024-06-13 21:01:15,15.08844707,0.0001383,53.2189,19.2203,104.7764,255.3381,-1.4954e-06,-3.12e-06,0.0,0 STARLINK-4581,1 53576U 22101BB  24165.87587284 -.00000312  00000-0 -14954-5 0  9995,2 53576  53.2189  19.2203 0001383 104.7764 255.3381 15.08844707101583,6917.866,95.437,540.688,538.774,0.0
53576.0,STARLINK-4581,PAYLOAD,2024-06-14 00:12:01,15.08846611,0.0001316,53.2187,18.6269,92.3985,267.7157,3.0562e-06,-2.39e-06,0.0,0 STARLINK-4581,1 53576U 22101BB  24166.00835192 -.00000239  00000-0  30562-5 0  9995,2 53576  53.2187  18.6269 0001316  92.3985 267.7157 15.08846611101606,6917.86,95.437,540.636,538.815,0.0
53576.0,STARLINK-4581,PAYLOAD,2024-06-14 20:52:03,15.08833739,0.0001224,53.2178,14.7598,87.8331,272.2801,7.345e-05,8.81e-06,0.0,0 STARLINK-4581,1 53576U 22101BB  24166.86948118  .00000881  00000-0  73450-4 0  9996,2 53576  53.2178  14.7598 0001224  87.8331 272.2801 15.08833739101738,6917.9,95.438,540.611,538.918,0.0
53576.0,STARLINK-4581,PAYLOAD,2024-06-15 14:21:17,15.08837067,0.0001422,53.2192,11.4932,100.2721,259.8432,6.3362e-06,-1.87e-06,0.0,0 STARLINK-4581,1 53576U 22101BB  24167.59812292 -.00000187  00000-0  63362-5 0  9992,2 53576  53.2192  11.4932 0001422 100.2721 259.8432 15.08837067101844,6917.889,95.438,540.738,538.771,0.0
53576.0,STARLINK-4581,PAYLOAD,2024-06-15 22:18:13,15.08841129,0.0001386,53.2202,10.0079,97.9631,262.1519,7.9248e-05,9.74e-06,0.0,0 STARLINK-4581,1 53576U 22101BB  24167.92931899  .00000974  00000-0  79248-4 0  9996,2 53576  53.2202  10.0079 0001386  97.9631 262.1519 15.08841129101896,6917.877,95.437,540.701,538.783,0.0
53576.0,STARLINK-4581,PAYLOAD,2024-06-16 12:36:41,15.08846069,0.0002132,53.2187,7.329,86.1121,274.0114,0.00018173,2.606e-05,0.0,0 STARLINK-4581,1 53576U 22101BB  24168.52547524  .00002606  00000-0  18173-3 0  9994,2 53576  53.2187   7.3290 0002132  86.1121 274.0114 15.08846069101987,6917.862,95.437,541.202,538.252,0.0
53576.0,STARLINK-4581,PAYLOAD,2024-06-16 20:33:37,15.08835064,0.0001311,53.219,5.8417,89.4855,270.6287,5.2738e-05,5.51e-06,0.0,0 STARLINK-4581,1 53576U 22101BB  24168.85668539  .00000551  00000-0  52738-4 0  9993,2 53576  53.2190   5.8417 0001311  89.4855 270.6287 15.08835064102036,6917.895,95.438,540.667,538.854,0.0
53576.0,STARLINK-4581,PAYLOAD,2024-06-17 20:24:22,15.08866061,0.0001238,53.2181,1.3814,85.3789,274.7344,0.00035967,5.445e-05,0.0,0 STARLINK-4581,1 53576U 22101BB  24169.85026025  .00005445  00000-0  35967-3 0  9993,2 53576  53.2181   1.3814 0001238  85.3789 274.7344 15.08866061101362,6917.801,95.436,540.522,538.809,0.0
53576.0,STARLINK-4581,PAYLOAD,2024-06-18 12:18:14,15.08849278,0.0002908,53.2175,358.4084,80.7128,279.4193,0.00017817,2.549e-05,0.0,0 STARLINK-4581,1 53576U 22101BB  24170.51266827  .00002549  00000-0  17817-3 0  9990,2 53576  53.2175 358.4084 0002908  80.7128 279.4193 15.08849278101467,6917.852,95.437,541.729,537.705,0.0
53576.0,STARLINK-4581,PAYLOAD,2024-06-18 18:39:47,15.08837403,0.0001858,53.2165,357.2189,82.8515,277.2689,-0.00020633,-3.57e-05,0.0,0 STARLINK-4581,1 53576U 22101BB  24170.77762810 -.00003570  00000-0 -20633-3 0  9998,2 53576  53.2165 357.2189 0001858  82.8515 277.2689 15.08837403101503,6917.888,95.438,541.039,538.468,0.0
53576.0,STARLINK-4581,PAYLOAD,2024-06-19 12:09:02,15.08823426,0.0001466,53.2164,353.9486,83.2193,276.8966,0.00083212,0.00012974,0.0,0 STARLINK-4581,1 53576U 22101BB  24171.50628074  .00012974  00000-0  83212-3 0  9991,2 53576  53.2164 353.9486 0001466  83.2193 276.8966 15.08823426101612,6917.931,95.439,540.81,538.782,0.0
53576.0,STARLINK-4581,PAYLOAD,2024-06-19 21:41:21,15.088337,0.0001475,53.2167,352.1628,91.1133,269.0028,0.00077561,0.00012075,0.0,0 STARLINK-4581,1 53576U 22101BB  24171.90372276  .00012075  00000-0  77561-3 0  9997,2 53576  53.2167 352.1628 0001475  91.1133 269.0028 15.08833700102492,6917.9,95.438,540.785,538.744,0.0
53576.0,STARLINK-4581,PAYLOAD,2024-06-20 05:38:17,15.08842026,0.0001468,53.2167,350.6758,90.6199,269.4961,0.00077131,0.00012009,0.0,0 STARLINK-4581,1 53576U 22101BB  24172.23492267  .00012009  00000-0  77131-3 0  9997,2 53576  53.2167 350.6758 0001468  90.6199 269.4961 15.08842026102544,6917.874,95.437,540.755,538.724,0.0
53576.0,STARLINK-4581,PAYLOAD,2024-06-20 21:32:08,15.08839739,0.0001583,53.2182,347.7018,95.462,264.6553,0.00034424,5.195e-05,0.0,0 STARLINK-4581,1 53576U 22101BB  24172.89732552  .00005195  00000-0  34424-3 0  9999,2 53576  53.2182 347.7018 0001583  95.4620 264.6553 15.08839739101828,6917.881,95.438,540.841,538.651,0.0
53576.0,STARLINK-4581,PAYLOAD,2024-06-21 18:12:09,15.08837911,0.0001589,53.2189,343.8355,100.7977,259.3194,0.00012849,1.757e-05,0.0,0 STARLINK-4581,1 53576U 22101BB  24173.75844776  .00001757  00000-0  12849-3 0  9994,2 53576  53.2189 343.8355 0001589 100.7977 259.3194 15.08837911101953,6917.887,95.438,540.851,538.653,0.0
53576.0,STARLINK-4581,PAYLOAD,2024-06-21 21:22:56,15.08839139,0.0001585,53.2188,343.2405,101.0934,259.0237,0.00013884,1.922e-05,0.0,0 STARLINK-4581,1 53576U 22101BB  24173.89092737  .00001922  00000-0  13884-3 0  9995,2 53576  53.2188 343.2405 0001585 101.0934 259.0237 15.08839139102797,6917.883,95.438,540.845,538.652,0.0
53576.0,STARLINK-4581,PAYLOAD,2024-06-22 11:41:24,15.08839356,0.0001433,53.218,340.5634,101.464,258.6513,0.00016405,2.324e-05,0.0,0 STARLINK-4581,1 53576U 22101BB  24174.48708804  .00002324  00000-0  16405-3 0  9999,2 53576  53.2180 340.5634 0001433 101.4640 258.6513 15.08839356102886,6917.882,95.438,540.739,538.756,0.0
53576.0,STARLINK-4581,PAYLOAD,2024-06-22 21:13:43,15.08839811,0.0001331,53.2175,338.7793,97.4815,262.6329,0.00010547,1.391e-05,0.0,0 STARLINK-4581,1 53576U 22101BB  24174.88452799  .00001391  00000-0  10547-3 0  9996,2 53576  53.2175 338.7793 0001331  97.4815 262.6329 15.08839811102943,6917.881,95.438,540.667,538.825,0.0
53576.0,STARLINK-4581,PAYLOAD,2024-06-23 14:42:57,15.08838608,0.0001319,53.2176,335.5083,96.7448,263.3694,7.9867e-05,9.83e-06,0.0,0 STARLINK-4581,1 53576U 22101BB  24175.61316913  .00000983  00000-0  79867-4 0  9992,2 53576  53.2176 335.5083 0001319  96.7448 263.3694 15.08838608103050,6917.885,95.438,540.662,538.837,0.0
